LEMUR-2-AMANDA-SVANTE   
1 48269U 21034B   26068.77637527  .00030872  00000+0  11134-2 0  9996
2 48269  97.5829 144.8625 0002703 205.4721 154.6385 15.28469003265849
STARLINK-30611          
1 58108U 23161M   26068.46128898 -.00000871  00000+0 -17308-4 0  9993
2 58108  53.1599 153.8170 0000996 118.8201 241.2900 15.30187351134567
